OBJECT_NAME,OBJECT_ID,EPOCH,MEAN_MOTION,ECCENTRICITY,INCLINATION,RA_OF_ASC_NODE,ARG_OF_PERICENTER,MEAN_ANOMALY,EPHEMERIS_TYPE,CLASSIFICATION_TYPE,NORAD_CAT_ID,ELEMENT_SET_NO,REV_AT_EPOCH,BSTAR,MEAN_MOTION_DOT,MEAN_MOTION_DDOT
STARLINK-4328,2022-077AE,2026-06-08T01:02:06.374112,15.05655152,.00019485,97.3889,339.6382,77.4360,282.7085,0,U,53071,999,21458,-.11813598E-3,-.1762E-4,0
STARLINK-4344,2022-077AF,2026-06-08T05:29:15.477504,15.05645858,.00026641,97.3872,339.7023,98.7978,261.3551,0,U,53072,999,21460,.83604041E-4,.1149E-4,0
STARLINK-4346,2022-077AG,2026-06-08T00:23:29.438016,15.22487615,.00042194,97.6359,348.4166,263.6957,96.3799,0,U,53073,999,21503,.6340835E-3,.14634E-3,0
STARLINK-4310,2022-077AH,2026-06-08T06:00:04.000320,15.14739420,.00019329,97.5780,340.5038,94.9831,183.6583,0,U,53074,999,579,.10969182E-2,.20306E-3,0
STARLINK-4348,2022-077AJ,2026-06-08T01:24:04.425120,15.05656183,.00014667,97.3888,338.5332,89.7680,270.3716,0,U,53075,999,21451,.9056698E-5,.73E-6,0
STARLINK-4347,2022-077AK,2026-06-08T01:00:08.241120,15.05654183,.00009548,97.3883,338.4160,107.9320,252.2012,0,U,53076,999,21450,.12332818E-4,.12E-5,0
STARLINK-4322,2022-077AM,2026-06-08T01:32:04.396992,15.05659673,.00015142,97.3902,338.5319,63.8019,296.3364,0,U,53078,999,21451,-.85503711E-4,-.1292E-4,0
STARLINK-4327,2022-077AN,2026-06-08T01:26:01.409856,15.05709007,.00012052,97.3889,339.5893,80.0756,280.0607,0,U,53079,999,21458,-.66687034E-3,-.9682E-4,0
STARLINK-4330,2022-077AP,2026-06-08T00:14:14.447616,15.05650090,.00025315,97.3879,339.5131,127.0436,233.1023,0,U,53080,999,21457,-.75423584E-4,-.1146E-4,0
STARLINK-4326,2022-077AQ,2026-06-08T00:44:11.860512,15.05669716,.0002178,97.3875,338.4014,100.9550,259.1923,0,U,53081,999,21450,-.26197059E-3,-.3838E-4,0
STARLINK-4321,2022-077AR,2026-06-08T01:08:06.444384,15.05652077,.0001299,97.3878,338.3847,92.1374,268.0002,0,U,53082,999,21450,.24186545E-4,.291E-5,0
STARLINK-4251,2022-077AS,2026-06-08T00:06:15.632640,15.05652836,.00014084,97.3916,339.4787,79.5530,280.5856,0,U,53083,999,21457,.7015967E-5,.43E-6,0
STARLINK-4319,2022-077AT,2026-06-08T01:37:58.972224,15.05699237,.00017294,97.3882,339.5699,82.0515,278.0909,0,U,53084,999,21458,-.59956601E-3,-.8709E-4,0
STARLINK-4324,2022-077AU,2026-06-08T05:09:18.512640,15.05648117,.00020096,97.3857,339.6706,120.1511,239.9916,0,U,53085,999,21460,.8407362E-5,.64E-6,0
STARLINK-4318,2022-077AV,2026-06-08T01:04:09.068160,15.05708731,.00007904,97.3862,338.5319,91.7909,268.3409,0,U,53086,999,21451,-.72017621E-3,-.1045E-3,0
STARLINK-4333,2022-077AX,2026-06-08T00:56:09.073824,15.05652536,.0001767,97.3877,338.3782,87.9101,272.2329,0,U,53088,999,21450,-.3305378E-4,-.535E-5,0
STARLINK-4150,2022-083C,2026-06-08T05:23:46.639968,15.08834878,.00014299,53.1674,127.6479,80.9739,279.1415,0,U,53134,999,21488,.16223965E-4,-.3E-6,0
STARLINK-4023,2022-083D,2026-06-08T05:34:22.652832,15.08835751,.00013139,53.1664,127.6162,95.9066,264.2075,0,U,53135,999,21587,-.21160484E-4,-.625E-5,0
STARLINK-4152,2022-083E,2026-06-08T05:29:05.125056,15.08798195,.00015654,53.1679,127.6336,96.3587,263.7583,0,U,53136,999,21587,.48945404E-3,.7502E-4,0
STARLINK-4145,2022-083F,2026-06-08T05:18:28.821888,15.08833190,.0001671,53.1679,127.6601,61.7763,298.3397,0,U,53137,999,21488,-.1639845E-4,-.549E-5,0
STARLINK-4141,2022-083G,2026-06-08T05:16:31.266048,15.08842395,.0001367,53.1675,122.8524,68.2832,291.8305,0,U,53138,999,21572,-.25286721E-4,-.69E-5,0
STARLINK-4185,2022-083H,2026-06-08T03:27:11.460096,15.08831358,.00010067,53.1670,128.0134,72.2996,287.8105,0,U,53139,999,21487,.59992207E-4,.667E-5,0
STARLINK-4170,2022-083J,2026-06-08T05:07:53.093280,15.08827243,.00013691,53.1685,127.7003,88.4462,271.6686,0,U,53140,999,21488,.52235362E-4,.543E-5,0
STARLINK-4103,2022-083K,2026-06-08T04:41:22.704288,15.08836589,.00014068,53.1678,127.7860,82.3625,277.7527,0,U,53141,999,21488,.45253049E-4,.432E-5,0
STARLINK-4101,2022-083L,2026-06-08T04:53:21.353568,15.08829106,.00014025,53.1668,127.7207,87.8527,272.2625,0,U,53142,999,21489,.10252798E-4,-.125E-5,0
STARLINK-4102,2022-083M,2026-06-08T04:36:04.836960,15.08833802,.00012598,53.1670,127.7999,88.8704,271.2432,0,U,53143,999,21488,-.11067416E-4,-.464E-5,0
STARLINK-4100,2022-083N,2026-06-08T04:51:58.703328,15.08833025,.00014033,53.1669,127.7560,85.3270,274.7881,0,U,53144,999,21488,.67721857E-4,.79E-5,0
STARLINK-4106,2022-083P,2026-06-08T04:25:29.136000,15.08837251,.00013514,53.1695,127.8306,84.1950,275.9196,0,U,53145,999,21488,-.76188645E-4,-.15E-4,0
STARLINK-4094,2022-083R,2026-06-08T04:20:12.269184,15.08832678,.00012378,53.1684,127.8481,95.8071,264.3062,0,U,53147,999,21553,.11900439E-3,.1606E-4,0
STARLINK-4021,2022-083T,2026-06-08T05:00:01.168704,15.08826226,.0001252,53.1679,117.9264,81.3060,278.8073,0,U,53149,999,21502,.12588308E-3,.1715E-4,0
STARLINK-4040,2022-083V,2026-06-08T03:39:06.498720,15.08841120,.0001203,53.1684,117.9785,87.6888,272.4242,0,U,53151,999,21501,.22144961E-4,.65E-6,0
STARLINK-4045,2022-083W,2026-06-08T06:00:04.000320,15.42899375,.00014474,53.2177,109.3619,70.2344,335.6018,0,U,53152,999,590,.3012975E-2,.136395E-2,0
STARLINK-4098,2022-083X,2026-06-08T03:33:48.857760,15.08837365,.0001312,53.1704,117.9955,83.8054,276.3087,0,U,53153,999,21501,.68889892E-4,.809E-5,0
STARLINK-4077,2022-083Y,2026-06-08T03:44:25.027008,15.08828903,.00009816,53.1686,117.9607,84.7825,275.3278,0,U,53154,999,21501,.13523691E-3,.1865E-4,0
STARLINK-4088,2022-083Z,2026-06-08T04:58:37.370208,15.08834317,.00012433,53.1676,117.7296,99.5710,260.5422,0,U,53155,999,21566,.14082021E-3,.1954E-4,0
STARLINK-4087,2022-083AA,2026-06-08T04:42:41.352480,15.08825951,.0001149,53.1674,117.6502,77.6022,282.5099,0,U,53156,999,21502,.17885072E-3,.2559E-4,0
STARLINK-4054,2022-083AC,2026-06-08T03:28:31.323072,15.08818716,.00013333,53.1697,118.0098,87.5364,272.5780,0,U,53158,999,21501,.24465123E-3,.3606E-4,0
STARLINK-4111,2022-083AD,2026-06-08T04:37:25.048128,15.08792192,.00014011,53.1681,117.7949,102.7673,257.3475,0,U,53159,999,21502,.48822141E-3,.7481E-4,0
STARLINK-4096,2022-083AE,2026-06-08T04:53:18.751200,15.08850917,.00010812,53.1667,117.7448,79.9520,280.1593,0,U,53160,999,21502,.31689939E-4,.217E-5,0
STARLINK-4055,2022-083AF,2026-06-08T04:21:30.298752,15.08825951,.00013788,53.1687,117.8473,88.2168,271.8982,0,U,53161,999,21502,.18251955E-3,.2617E-4,0
STARLINK-4114,2022-083AG,2026-06-08T04:44:05.725536,15.08811464,.00013689,53.1678,117.7846,91.1037,269.0112,0,U,53162,999,21502,.33872944E-3,.5103E-4,0
STARLINK-4104,2022-083AH,2026-06-08T04:32:08.253888,15.08825496,.00013108,53.1673,117.9569,84.9864,275.1277,0,U,53163,999,21502,.13156531E-3,.1806E-4,0
STARLINK-4116,2022-083AJ,2026-06-08T04:26:48.045984,15.08836561,.00013741,53.1664,117.8273,78.7586,281.3559,0,U,53164,999,21502,.94464745E-4,.1216E-4,0
STARLINK-4090,2022-083AK,2026-06-08T04:05:36.409056,15.08842253,.0001665,53.1679,117.8948,85.4216,274.6966,0,U,53165,999,21502,.5512551E-5,-.2E-5,0
STARLINK-4110,2022-083AL,2026-06-08T06:00:04.000320,15.52507544,.00011489,53.2173,106.7225,81.2789,130.5546,0,U,53166,999,587,.8979165E-2,.604298E-2,0
STARLINK-3683,2022-083AM,2026-06-08T02:56:03.233760,15.08835324,.00012348,53.1678,103.1078,85.6737,274.4396,0,U,53167,999,21521,.32460173E-4,.229E-5,0
STARLINK-4105,2022-083AN,2026-06-08T04:10:54.755904,15.08830460,.00014481,53.1677,117.8802,82.9419,277.1737,0,U,53168,999,21502,-.2231006E-5,-.324E-5,0
STARLINK-4117,2022-083AP,2026-06-08T03:59:42.086976,15.08812382,.00012847,53.1682,103.1713,87.5600,272.5539,0,U,53169,999,21521,.29613901E-3,.4425E-4,0
STARLINK-4095,2022-083AQ,2026-06-08T03:15:56.200032,15.08834933,.00012612,53.1671,113.0077,68.9094,291.2032,0,U,53170,999,21508,.58039709E-4,.636E-5,0
STARLINK-4052,2022-083AR,2026-06-08T01:04:02.913024,15.08849305,.00012389,53.1674,88.2229,96.4174,263.6959,0,U,53171,999,21541,.17512593E-3,.2501E-4,0
STARLINK-4299,2022-083AS,2026-06-08T04:40:42.489408,15.08834389,.00017887,53.1690,112.6954,55.1624,304.9536,0,U,53172,999,21508,.20320217E-4,.35E-6,0
STARLINK-4300,2022-083AT,2026-06-08T00:23:42.285696,15.08843045,.00014089,53.1704,93.5800,81.1889,278.9262,0,U,53173,999,21533,-.8997124E-5,-.431E-5,0
STARLINK-4205,2022-083AU,2026-06-08T05:41:02.226912,15.08838959,.00011451,53.1665,127.5320,86.5636,273.5487,0,U,53174,999,21488,.6500834E-4,.747E-5,0
STARLINK-4292,2022-083AV,2026-06-08T04:09:35.465760,15.08833733,.0001188,53.1695,127.8810,91.4397,268.6731,0,U,53175,999,21487,.42547882E-4,.389E-5,0
STARLINK-4294,2022-083AW,2026-06-08T05:50:51.847296,15.08996617,.00003639,53.1673,102.4764,95.4727,264.6306,0,U,53176,999,21523,-.21575834E-2,-.34608E-3,0
STARLINK-4298,2022-083AX,2026-06-08T00:13:06.497472,15.08835381,.00012445,53.1704,93.6095,86.5246,273.5888,0,U,53177,999,21533,.5054541E-4,.517E-5,0
STARLINK-4280,2022-083AY,2026-06-08T04:00:18.643680,15.08834676,.00013057,53.1687,117.9144,77.8982,282.2156,0,U,53178,999,21500,.16866121E-4,-.2E-6,0
STARLINK-4276,2022-083AZ,2026-06-08T02:14:15.517824,15.08836595,.00014404,53.1675,77.8375,74.9991,285.1160,0,U,53179,999,21556,.85358035E-4,.1071E-4,0
STARLINK-4258,2022-083BA,2026-06-08T01:16:00.743232,15.08838045,.00013564,53.1670,78.2922,97.1290,262.9855,0,U,53180,999,21555,.21079171E-4,.47E-6,0
STARLINK-4278,2022-083BC,2026-06-08T03:18:36.377856,15.08807724,.00015159,53.1692,93.0292,154.1699,205.9369,0,U,53182,999,21535,-.13455764E-3,-.2427E-4,0
STARLINK-4268,2022-083BD,2026-06-08T00:19:42.511008,15.08839729,.00015689,53.1687,83.5146,115.8665,244.2489,0,U,53183,999,21547,.63389836E-4,.721E-5,0
STARLINK-4257,2022-083BE,2026-06-08T00:33:34.098048,15.08838685,.00016824,53.1701,78.1412,93.3453,266.7731,0,U,53184,999,21556,.9594991E-4,.1239E-4,0
STARLINK-4391,2022-084A,2026-06-08T03:21:38.872800,15.05651251,.0000657,97.3872,219.6249,75.9216,284.2084,0,U,53189,999,21366,-.8313747E-5,-.178E-5,0
STARLINK-4332,2022-084B,2026-06-08T03:41:35.473056,15.05651732,.00014687,97.3872,219.6727,111.6502,248.4882,0,U,53190,999,21366,-.34618092E-4,-.557E-5,0
